ATLAS CENTAUR R/B       
1 06155U 72065B   25314.96387401  .00002140  00000+0  29735-3 0  9995
2 06155  35.0019 281.3187 0033108  91.6000 268.8493 14.77281519823691
SL-8 R/B                
1 08459U 75112B   25314.27520400  .00000523  00000+0  18094-3 0  9991
2 08459  74.0608 238.5676 0015650 354.7569   5.3419 14.38113073614707
SL-3 R/B                
1 10114U 77057B   25314.96724492  .00014178  00000+0  33528-3 0  9995
2 10114  97.5686 117.0858 0007733   1.0680 359.0581 15.41903339650016
SEASAT 1                
1 10967U 78064A   25314.51441079  .00000774  00000+0  25541-3 0  9991
2 10967 108.0062 235.4378 0002426 256.8621 103.2254 14.46004982489284
SL-14 R/B               
1 11267U 79011B   25314.72506226  .00001082  00000+0  10471-3 0  9996
2 11267  82.5263 209.4012 0017701  94.2062 266.1181 14.91710383511045
SL-8 R/B                
1 11574U 79089B   25314.72101677  .00000462  00000+0  14802-3 0  9996
2 11574  74.0679 311.2412 0015107 158.3164 201.8635 14.42249288418955
SL-14 R/B               
1 11672U 80005B   25314.59281408  .00001282  00000+0  12786-3 0  9991
2 11672  82.5156  60.1801 0015363 195.6074 164.4673 14.90726151458747
SL-8 R/B                
1 12139U 81003B   25314.31758011  .00030896  00000+0  85635-3 0  9994
2 12139  82.9334  40.0043 0282986 232.4435 125.0786 15.05282517296682
SL-3 R/B                
1 12465U 81046B   25314.90349843  .00015080  00000+0  39144-3 0  9999
2 12465  81.2330  71.9894 0020710  73.4597 286.8917 15.38626658420142
SL-3 R/B                
1 12904U 81103B   25314.92897374  .00009987  00000+0  46626-3 0  9992
2 12904  81.1601 352.5954 0012963 338.0216  22.0457 15.19643918955187
SL-3 R/B                
1 13068U 82013B   25314.93157382  .00005800  00000+0  26141-3 0  9994
2 13068  81.1732 299.8340 0021892 216.7259 143.2473 15.20660734386297
