CCSDS_OMM_VERS = 2.0
CREATION_DATE  = 
ORIGINATOR     = 

OBJECT_NAME    = ATLAS CENTAUR R/B
OBJECT_ID      = 1972-065B
CENTER_NAME    = EARTH
REF_FRAME      = TEME
TIME_SYSTEM    = UTC
MEAN_ELEMENT_THEORY = SGP/SGP4

EPOCH          = 2025-11-10T23:07:58.714464
MEAN_MOTION    = 14.77281519
ECCENTRICITY   = .00331086
INCLINATION    = 35.0019
RA_OF_ASC_NODE = 281.3187
ARG_OF_PERICENTER = 91.6000
MEAN_ANOMALY   = 268.8493

EPHEMERIS_TYPE = 0
CLASSIFICATION_TYPE = U
NORAD_CAT_ID   = 6155
ELEMENT_SET_NO = 999
REV_AT_EPOCH   = 82369
BSTAR          = .29735341E-3
MEAN_MOTION_DOT = .214E-4
MEAN_MOTION_DDOT = 0

CCSDS_OMM_VERS = 2.0
CREATION_DATE  = 
ORIGINATOR     = 

OBJECT_NAME    = SL-8 R/B
OBJECT_ID      = 1975-112B
CENTER_NAME    = EARTH
REF_FRAME      = TEME
TIME_SYSTEM    = UTC
MEAN_ELEMENT_THEORY = SGP/SGP4

EPOCH          = 2025-11-10T06:36:17.625600
MEAN_MOTION    = 14.38113073
ECCENTRICITY   = .00156503
INCLINATION    = 74.0608
RA_OF_ASC_NODE = 238.5676
ARG_OF_PERICENTER = 354.7569
MEAN_ANOMALY   = 5.3419

EPHEMERIS_TYPE = 0
CLASSIFICATION_TYPE = U
NORAD_CAT_ID   = 8459
ELEMENT_SET_NO = 999
REV_AT_EPOCH   = 61470
BSTAR          = .18093914E-3
MEAN_MOTION_DOT = .523E-5
MEAN_MOTION_DDOT = 0

CCSDS_OMM_VERS = 2.0
CREATION_DATE  = 
ORIGINATOR     = 

OBJECT_NAME    = SL-3 R/B
OBJECT_ID      = 1977-057B
CENTER_NAME    = EARTH
REF_FRAME      = TEME
TIME_SYSTEM    = UTC
MEAN_ELEMENT_THEORY = SGP/SGP4

EPOCH          = 2025-11-10T23:12:49.961088
MEAN_MOTION    = 15.41903339
ECCENTRICITY   = .00077331
INCLINATION    = 97.5686
RA_OF_ASC_NODE = 117.0858
ARG_OF_PERICENTER = 1.0680
MEAN_ANOMALY   = 359.0581

EPHEMERIS_TYPE = 0
CLASSIFICATION_TYPE = U
NORAD_CAT_ID   = 10114
ELEMENT_SET_NO = 999
REV_AT_EPOCH   = 65001
BSTAR          = .33528498E-3
MEAN_MOTION_DOT = .14178E-3
MEAN_MOTION_DDOT = 0

CCSDS_OMM_VERS = 2.0
CREATION_DATE  = 
ORIGINATOR     = 

OBJECT_NAME    = SEASAT 1
OBJECT_ID      = 1978-064A
CENTER_NAME    = EARTH
REF_FRAME      = TEME
TIME_SYSTEM    = UTC
MEAN_ELEMENT_THEORY = SGP/SGP4

EPOCH          = 2025-11-10T12:20:45.092256
MEAN_MOTION    = 14.46004982
ECCENTRICITY   = .00024267
INCLINATION    = 108.0062
RA_OF_ASC_NODE = 235.4378
ARG_OF_PERICENTER = 256.8621
MEAN_ANOMALY   = 103.2254

EPHEMERIS_TYPE = 0
CLASSIFICATION_TYPE = U
NORAD_CAT_ID   = 10967
ELEMENT_SET_NO = 999
REV_AT_EPOCH   = 48928
BSTAR          = .25540655E-3
MEAN_MOTION_DOT = .774E-5
MEAN_MOTION_DDOT = 0

CCSDS_OMM_VERS = 2.0
CREATION_DATE  = 
ORIGINATOR     = 

OBJECT_NAME    = SL-14 R/B
OBJECT_ID      = 1979-011B
CENTER_NAME    = EARTH
REF_FRAME      = TEME
TIME_SYSTEM    = UTC
MEAN_ELEMENT_THEORY = SGP/SGP4

EPOCH          = 2025-11-10T17:24:05.379264
MEAN_MOTION    = 14.91710383
ECCENTRICITY   = .00177019
INCLINATION    = 82.5263
RA_OF_ASC_NODE = 209.4012
ARG_OF_PERICENTER = 94.2062
MEAN_ANOMALY   = 266.1181

EPHEMERIS_TYPE = 0
CLASSIFICATION_TYPE = U
NORAD_CAT_ID   = 11267
ELEMENT_SET_NO = 999
REV_AT_EPOCH   = 51104
BSTAR          = .1047113E-3
MEAN_MOTION_DOT = .1082E-4
MEAN_MOTION_DDOT = 0

CCSDS_OMM_VERS = 2.0
CREATION_DATE  = 
ORIGINATOR     = 

OBJECT_NAME    = SL-8 R/B
OBJECT_ID      = 1979-089B
CENTER_NAME    = EARTH
REF_FRAME      = TEME
TIME_SYSTEM    = UTC
MEAN_ELEMENT_THEORY = SGP/SGP4

EPOCH          = 2025-11-10T17:18:15.848928
MEAN_MOTION    = 14.42249288
ECCENTRICITY   = .00151077
INCLINATION    = 74.0679
RA_OF_ASC_NODE = 311.2412
ARG_OF_PERICENTER = 158.3164
MEAN_ANOMALY   = 201.8635

EPHEMERIS_TYPE = 0
CLASSIFICATION_TYPE = U
NORAD_CAT_ID   = 11574
ELEMENT_SET_NO = 999
REV_AT_EPOCH   = 41895
BSTAR          = .14802311E-3
MEAN_MOTION_DOT = .462E-5
MEAN_MOTION_DDOT = 0

CCSDS_OMM_VERS = 2.0
CREATION_DATE  = 
ORIGINATOR     = 

OBJECT_NAME    = SL-14 R/B
OBJECT_ID      = 1980-005B
CENTER_NAME    = EARTH
REF_FRAME      = TEME
TIME_SYSTEM    = UTC
MEAN_ELEMENT_THEORY = SGP/SGP4

EPOCH          = 2025-11-10T14:13:39.136512
MEAN_MOTION    = 14.90726151
ECCENTRICITY   = .00153633
INCLINATION    = 82.5156
RA_OF_ASC_NODE = 60.1801
ARG_OF_PERICENTER = 195.6074
MEAN_ANOMALY   = 164.4673

EPHEMERIS_TYPE = 0
CLASSIFICATION_TYPE = U
NORAD_CAT_ID   = 11672
ELEMENT_SET_NO = 999
REV_AT_EPOCH   = 45874
BSTAR          = .1278615E-3
MEAN_MOTION_DOT = .1282E-4
MEAN_MOTION_DDOT = 0

CCSDS_OMM_VERS = 2.0
CREATION_DATE  = 
ORIGINATOR     = 

OBJECT_NAME    = SL-8 R/B
OBJECT_ID      = 1981-003B
CENTER_NAME    = EARTH
REF_FRAME      = TEME
TIME_SYSTEM    = UTC
MEAN_ELEMENT_THEORY = SGP/SGP4

EPOCH          = 2025-11-10T07:37:18.921504
MEAN_MOTION    = 15.05282517
ECCENTRICITY   = .02829866
INCLINATION    = 82.9334
RA_OF_ASC_NODE = 40.0043
ARG_OF_PERICENTER = 232.4435
MEAN_ANOMALY   = 125.0786

EPHEMERIS_TYPE = 0
CLASSIFICATION_TYPE = U
NORAD_CAT_ID   = 12139
ELEMENT_SET_NO = 999
REV_AT_EPOCH   = 29668
BSTAR          = .85634554E-3
MEAN_MOTION_DOT = .30896E-3
MEAN_MOTION_DDOT = 0

CCSDS_OMM_VERS = 2.0
CREATION_DATE  = 
ORIGINATOR     = 

OBJECT_NAME    = SL-3 R/B
OBJECT_ID      = 1981-046B
CENTER_NAME    = EARTH
REF_FRAME      = TEME
TIME_SYSTEM    = UTC
MEAN_ELEMENT_THEORY = SGP/SGP4

EPOCH          = 2025-11-10T21:41:02.264352
MEAN_MOTION    = 15.38626658
ECCENTRICITY   = .00207102
INCLINATION    = 81.2330
RA_OF_ASC_NODE = 71.9894
ARG_OF_PERICENTER = 73.4597
MEAN_ANOMALY   = 286.8917

EPHEMERIS_TYPE = 0
CLASSIFICATION_TYPE = U
NORAD_CAT_ID   = 12465
ELEMENT_SET_NO = 999
REV_AT_EPOCH   = 42014
BSTAR          = .39144194E-3
MEAN_MOTION_DOT = .1508E-3
MEAN_MOTION_DDOT = 0

CCSDS_OMM_VERS = 2.0
CREATION_DATE  = 
ORIGINATOR     = 

OBJECT_NAME    = SL-3 R/B
OBJECT_ID      = 1981-103B
CENTER_NAME    = EARTH
REF_FRAME      = TEME
TIME_SYSTEM    = UTC
MEAN_ELEMENT_THEORY = SGP/SGP4

EPOCH          = 2025-11-10T22:17:43.331136
MEAN_MOTION    = 15.19643918
ECCENTRICITY   = .00129637
INCLINATION    = 81.1601
RA_OF_ASC_NODE = 352.5954
ARG_OF_PERICENTER = 338.0216
MEAN_ANOMALY   = 22.0457

EPHEMERIS_TYPE = 0
CLASSIFICATION_TYPE = U
NORAD_CAT_ID   = 12904
ELEMENT_SET_NO = 999
REV_AT_EPOCH   = 95518
BSTAR          = .46626127E-3
MEAN_MOTION_DOT = .9987E-4
MEAN_MOTION_DDOT = 0

CCSDS_OMM_VERS = 2.0
CREATION_DATE  = 
ORIGINATOR     = 

OBJECT_NAME    = SL-3 R/B
OBJECT_ID      = 1982-013B
CENTER_NAME    = EARTH
REF_FRAME      = TEME
TIME_SYSTEM    = UTC
MEAN_ELEMENT_THEORY = SGP/SGP4

EPOCH          = 2025-11-10T22:21:27.978048
MEAN_MOTION    = 15.20660734
ECCENTRICITY   = .00218928
INCLINATION    = 81.1732
RA_OF_ASC_NODE = 299.8340
ARG_OF_PERICENTER = 216.7259
MEAN_ANOMALY   = 143.2473

EPHEMERIS_TYPE = 0
CLASSIFICATION_TYPE = U
NORAD_CAT_ID   = 13068
ELEMENT_SET_NO = 999
REV_AT_EPOCH   = 38629
BSTAR          = .26141069E-3
MEAN_MOTION_DOT = .58E-4
MEAN_MOTION_DDOT = 0

